{
  "norad_id": 69033,
  "name": "STARLINK-37591",
  "history": [
    {
      "epoch": "2026-05-12T20:00:01.999008Z",
      "apogee_km": 308.23299898954974,
      "perigee_km": 306.51482268546533,
      "latitude_deg": -24.305083043049653,
      "longitude_deg": 179.62603677498421,
      "height_km": 317.2166569615617,
      "semi_major_axis_km": 6685.510910837507,
      "eccentricity": 0.0001285,
      "inclination_deg": 97.2887,
      "raan_deg": 346.9438,
      "arg_perigee_deg": 105.194,
      "mean_anomaly_deg": 230.5607,
      "mean_motion_rev_day": 15.88184156
    }
  ]
}