STARLINK-37591          
1 69033U 26101J   26132.83335648 -.02037719  00000+0 -86305-2 0  9999
2 69033  97.2887 346.9438 0001285 105.1940 230.5607 15.88184156  2289
